[{"OBJECT_NAME":"STARLINK-32094","OBJECT_ID":"2024-086Q","EPOCH":"2026-03-09T09:29:56.367456","MEAN_MOTION":15.27575061,"ECCENTRICITY":8.278e-5,"INCLINATION":43.0013,"RA_OF_ASC_NODE":61.8558,"ARG_OF_PERICENTER":278.2145,"MEAN_ANOMALY":81.8613,"EPHEMERIS_TYPE":0,"CLASSIFICATION_TYPE":"U","NORAD_CAT_ID":59696,"ELEMENT_SET_NO":999,"REV_AT_EPOCH":10406,"BSTAR":-3.5418961e-5,"MEAN_MOTION_DOT":-1.236e-5,"MEAN_MOTION_DDOT":0},{"OBJECT_NAME":"LUR-1","OBJECT_ID":"2024-149AQ","EPOCH":"2026-03-09T19:05:45.284064","MEAN_MOTION":15.28658648,"ECCENTRICITY":0.00027765,"INCLINATION":97.379,"RA_OF_ASC_NODE":148.4255,"ARG_OF_PERICENTER":309.1571,"MEAN_ANOMALY":50.9421,"EPHEMERIS_TYPE":0,"CLASSIFICATION_TYPE":"U","NORAD_CAT_ID":60506,"ELEMENT_SET_NO":999,"REV_AT_EPOCH":8678,"BSTAR":0.0003298462,"MEAN_MOTION_DOT":9.121e-5,"MEAN_MOTION_DDOT":0}]
